<?xml version="1.0" encoding="UTF-8"?>
<q:quakeml xmlns:q="http://quakeml.org/xmlns/quakeml-rt/1.2" xmlns="http://quakeml.org/xmlns/bed-rt/1.2">
  <eventParameters publicID="smi:scs/0.6/NA-idp1584">
    <stationMagnitude publicID="smi:scs/0.6/NLL.20130429225437.756854.3816785#staMag.ML#NZ.ANWZ">
      <comment/>
      <originID>smi:scs/0.6/NLL.20130429225437.756854.3816785</originID>
      <mag>
        <value>3.1699493</value>
      </mag>
      <type>ML</type>
      <amplitudeID>smi:scs/0.6/Amplitude#20130429225436.608195.498639</amplitudeID>
      <waveformID networkCode="NZ" stationCode="ANWZ" locationCode="10" channelCode="EH">smi:scs/0.6/NA-idp356592</waveformID>
      <creationInfo>
        <agencyID>WEL(GNS_Primary)</agencyID>
        <author>scmag@scz-ak.geonet.org.nz</author>
        <creationTime>2013-04-29T22:54:41.917189Z</creationTime>
      </creationInfo>
    </stationMagnitude>
    <stationMagnitude publicID="smi:scs/0.6/NLL.20130429225437.756854.3816785#staMag.MLv#NZ.ANWZ">
      <comment/>
      <originID>smi:scs/0.6/NLL.20130429225437.756854.3816785</originID>
      <mag>
        <value>2.8968852</value>
      </mag>
      <type>MLv</type>
      <amplitudeID>smi:scs/0.6/Amplitude#20130429225440.813399.498645</amplitudeID>
      <waveformID networkCode="NZ" stationCode="ANWZ" locationCode="10" channelCode="EHZ">smi:scs/0.6/NA-idp361808</waveformID>
      <creationInfo>
        <agencyID>WEL(GNS_Primary)</agencyID>
        <author>scmag@scz-ak.geonet.org.nz</author>
        <creationTime>2013-04-29T22:54:41.917336Z</creationTime>
      </creationInfo>
    </stationMagnitude>
    <stationMagnitude publicID="smi:scs/0.6/NLL.20130429225437.756854.3816785#staMag.ML#NZ.DVHZ">
      <comment/>
      <originID>smi:scs/0.6/NLL.20130429225437.756854.3816785</originID>
      <mag>
        <value>2.5483343</value>
      </mag>
      <type>ML</type>
      <amplitudeID>smi:scs/0.6/Amplitude#20130429225435.202086.498635</amplitudeID>
      <waveformID networkCode="NZ" stationCode="DVHZ" locationCode="10" channelCode="EH">smi:scs/0.6/NA-idp367024</waveformID>
      <creationInfo>
        <agencyID>WEL(GNS_Primary)</agencyID>
        <author>scmag@scz-ak.geonet.org.nz</author>
        <creationTime>2013-04-29T22:54:41.917484Z</creationTime>
      </creationInfo>
    </stationMagnitude>
    <stationMagnitude publicID="smi:scs/0.6/NLL.20130429225437.756854.3816785#staMag.MLv#NZ.DVHZ">
      <comment/>
      <originID>smi:scs/0.6/NLL.20130429225437.756854.3816785</originID>
      <mag>
        <value>2.0598417</value>
      </mag>
      <type>MLv</type>
      <amplitudeID>smi:scs/0.6/Amplitude#20130429225432.295725.498633</amplitudeID>
      <waveformID networkCode="NZ" stationCode="DVHZ" locationCode="10" channelCode="EHZ">smi:scs/0.6/NA-idp372240</waveformID>
      <creationInfo>
        <agencyID>WEL(GNS_Primary)</agencyID>
        <author>scmag@scz-ak.geonet.org.nz</author>
        <creationTime>2013-04-29T22:54:41.91761Z</creationTime>
      </creationInfo>
    </stationMagnitude>
    <stationMagnitude publicID="smi:scs/0.6/NLL.20130429225437.756854.3816785#staMag.MLv#NZ.KAHZ">
      <comment/>
      <originID>smi:scs/0.6/NLL.20130429225437.756854.3816785</originID>
      <mag>
        <value>2.2383916</value>
      </mag>
      <type>MLv</type>
      <amplitudeID>smi:scs/0.6/Amplitude#20130429225439.31028.498643</amplitudeID>
      <waveformID networkCode="NZ" stationCode="KAHZ" locationCode="10" channelCode="EHZ">smi:scs/0.6/NA-idp377456</waveformID>
      <creationInfo>
        <agencyID>WEL(GNS_Primary)</agencyID>
        <author>scmag@scz-ak.geonet.org.nz</author>
        <creationTime>2013-04-29T22:54:41.917751Z</creationTime>
      </creationInfo>
    </stationMagnitude>
    <stationMagnitude publicID="smi:scs/0.6/NLL.20130429225437.756854.3816785#staMag.ML#NZ.PRHZ">
      <comment/>
      <originID>smi:scs/0.6/NLL.20130429225437.756854.3816785</originID>
      <mag>
        <value>2.609731</value>
      </mag>
      <type>ML</type>
      <amplitudeID>smi:scs/0.6/Amplitude#20130429225430.292575.498631</amplitudeID>
      <waveformID networkCode="NZ" stationCode="PRHZ" locationCode="10" channelCode="EH">smi:scs/0.6/NA-idp382672</waveformID>
      <creationInfo>
        <agencyID>WEL(GNS_Primary)</agencyID>
        <author>scmag@scz-ak.geonet.org.nz</author>
        <creationTime>2013-04-29T22:54:41.917896Z</creationTime>
      </creationInfo>
    </stationMagnitude>
    <stationMagnitude publicID="smi:scs/0.6/NLL.20130429225437.756854.3816785#staMag.MLv#NZ.PRHZ">
      <comment/>
      <originID>smi:scs/0.6/NLL.20130429225437.756854.3816785</originID>
      <mag>
        <value>1.8311897</value>
      </mag>
      <type>MLv</type>
      <amplitudeID>smi:scs/0.6/Amplitude#20130429225427.286361.498629</amplitudeID>
      <waveformID networkCode="NZ" stationCode="PRHZ" locationCode="10" channelCode="EHZ">smi:scs/0.6/NA-idp387888</waveformID>
      <creationInfo>
        <agencyID>WEL(GNS_Primary)</agencyID>
        <author>scmag@scz-ak.geonet.org.nz</author>
        <creationTime>2013-04-29T22:54:41.918016Z</creationTime>
      </creationInfo>
    </stationMagnitude>
    <stationMagnitude publicID="smi:scs/0.6/NLL.20130429225437.756854.3816785#staMag.ML#NZ.PXZ">
      <comment/>
      <originID>smi:scs/0.6/NLL.20130429225437.756854.3816785</originID>
      <mag>
        <value>2.5672655</value>
      </mag>
      <type>ML</type>
      <amplitudeID>smi:scs/0.6/Amplitude#20130429225437.106997.498641</amplitudeID>
      <waveformID networkCode="NZ" stationCode="PXZ" locationCode="10" channelCode="HH">smi:scs/0.6/NA-idp393104</waveformID>
      <creationInfo>
        <agencyID>WEL(GNS_Primary)</agencyID>
        <author>scmag@scz-ak.geonet.org.nz</author>
        <creationTime>2013-04-29T22:54:41.918153Z</creationTime>
      </creationInfo>
    </stationMagnitude>
    <stationMagnitude publicID="smi:scs/0.6/NLL.20130429225437.756854.3816785#staMag.MLv#NZ.PXZ">
      <comment/>
      <originID>smi:scs/0.6/NLL.20130429225437.756854.3816785</originID>
      <mag>
        <value>2.2065175</value>
      </mag>
      <type>MLv</type>
      <amplitudeID>smi:scs/0.6/Amplitude#20130429225436.304207.498637</amplitudeID>
      <waveformID networkCode="NZ" stationCode="PXZ" locationCode="10" channelCode="HHZ">smi:scs/0.6/NA-idp398288</waveformID>
      <creationInfo>
        <agencyID>WEL(GNS_Primary)</agencyID>
        <author>scmag@scz-ak.geonet.org.nz</author>
        <creationTime>2013-04-29T22:54:41.918272Z</creationTime>
      </creationInfo>
    </stationMagnitude>
    <stationMagnitude publicID="smi:scs/0.6/NLL.20130429225437.756854.3816785#staMag.MLv#NZ.TSZ">
      <comment/>
      <originID>smi:scs/0.6/NLL.20130429225437.756854.3816785</originID>
      <mag>
        <value>2.5058572</value>
      </mag>
      <type>MLv</type>
      <amplitudeID>smi:scs/0.6/Amplitude#20130429225440.913958.498647</amplitudeID>
      <waveformID networkCode="NZ" stationCode="TSZ" locationCode="10" channelCode="HHZ">smi:scs/0.6/NA-idp403472</waveformID>
      <creationInfo>
        <agencyID>WEL(GNS_Primary)</agencyID>
        <author>scmag@scz-ak.geonet.org.nz</author>
        <creationTime>2013-04-29T22:54:41.918397Z</creationTime>
      </creationInfo>
    </stationMagnitude>
    <stationMagnitude publicID="smi:scs/0.6/NLL.20130429225437.756854.3816785#staMag.ML#NZ.WPHZ">
      <comment/>
      <originID>smi:scs/0.6/NLL.20130429225437.756854.3816785</originID>
      <mag>
        <value>2.0194681</value>
      </mag>
      <type>ML</type>
      <amplitudeID>smi:scs/0.6/Amplitude#20130429225423.356197.498625</amplitudeID>
      <waveformID networkCode="NZ" stationCode="WPHZ" locationCode="10" channelCode="EH">smi:scs/0.6/NA-idp408656</waveformID>
      <creationInfo>
        <agencyID>WEL(GNS_Primary)</agencyID>
        <author>scmag@scz-ak.geonet.org.nz</author>
        <creationTime>2013-04-29T22:54:41.918546Z</creationTime>
      </creationInfo>
    </stationMagnitude>
    <stationMagnitude publicID="smi:scs/0.6/NLL.20130429225437.756854.3816785#staMag.MLv#NZ.WPHZ">
      <comment/>
      <originID>smi:scs/0.6/NLL.20130429225437.756854.3816785</originID>
      <mag>
        <value>1.8657904</value>
      </mag>
      <type>MLv</type>
      <amplitudeID>smi:scs/0.6/Amplitude#20130429225423.361989.498627</amplitudeID>
      <waveformID networkCode="NZ" stationCode="WPHZ" locationCode="10" channelCode="EHZ">smi:scs/0.6/NA-idp413872</waveformID>
      <creationInfo>
        <agencyID>WEL(GNS_Primary)</agencyID>
        <author>scmag@scz-ak.geonet.org.nz</author>
        <creationTime>2013-04-29T22:54:41.918687Z</creationTime>
      </creationInfo>
    </stationMagnitude>
    <stationMagnitude publicID="smi:scs/0.6/NLL.20130429225437.756854.3816785#staMag.ML#NZ.KAHZ">
      <comment/>
      <originID>smi:scs/0.6/NLL.20130429225437.756854.3816785</originID>
      <mag>
        <value>2.5329428</value>
      </mag>
      <type>ML</type>
      <amplitudeID>smi:scs/0.6/Amplitude#20130429225444.220871.498653</amplitudeID>
      <waveformID networkCode="NZ" stationCode="KAHZ" locationCode="10" channelCode="EH">smi:scs/0.6/NA-idp419088</waveformID>
      <creationInfo>
        <agencyID>WEL(GNS_Primary)</agencyID>
        <author>scmag@scz-ak.geonet.org.nz</author>
        <creationTime>2013-04-29T22:54:44.225304Z</creationTime>
      </creationInfo>
    </stationMagnitude>
    <stationMagnitude publicID="smi:scs/0.6/NLL.20130429225437.756854.3816785#staMag.ML#NZ.TSZ">
      <comment/>
      <originID>smi:scs/0.6/NLL.20130429225437.756854.3816785</originID>
      <mag>
        <value>2.7602452</value>
      </mag>
      <type>ML</type>
      <amplitudeID>smi:scs/0.6/Amplitude#20130429225445.825619.498655</amplitudeID>
      <waveformID networkCode="NZ" stationCode="TSZ" locationCode="10" channelCode="HH">smi:scs/0.6/NA-idp424304</waveformID>
      <creationInfo>
        <agencyID>WEL(GNS_Primary)</agencyID>
        <author>scmag@scz-ak.geonet.org.nz</author>
        <creationTime>2013-04-29T22:54:45.830731Z</creationTime>
      </creationInfo>
    </stationMagnitude>
    <stationMagnitude publicID="smi:scs/0.6/NLL.20130429225437.756854.3816785#staMag.ML#NZ.PRWZ">
      <comment/>
      <originID>smi:scs/0.6/NLL.20130429225437.756854.3816785</originID>
      <mag>
        <value>2.2332948</value>
      </mag>
      <type>ML</type>
      <amplitudeID>smi:scs/0.6/Amplitude#20130429225449.236161.498657</amplitudeID>
      <waveformID networkCode="NZ" stationCode="PRWZ" locationCode="10" channelCode="EH">smi:scs/0.6/NA-idp429488</waveformID>
      <creationInfo>
        <agencyID>WEL(GNS_Primary)</agencyID>
        <author>scmag@scz-ak.geonet.org.nz</author>
        <creationTime>2013-04-29T22:54:49.240791Z</creationTime>
      </creationInfo>
    </stationMagnitude>
    <stationMagnitude publicID="smi:scs/0.6/NLL.20130429225437.756854.3816785#staMag.MLv#NZ.PRWZ">
      <comment/>
      <originID>smi:scs/0.6/NLL.20130429225437.756854.3816785</originID>
      <mag>
        <value>2.0213581</value>
      </mag>
      <type>MLv</type>
      <amplitudeID>smi:scs/0.6/Amplitude#20130429225451.236394.498659</amplitudeID>
      <waveformID networkCode="NZ" stationCode="PRWZ" locationCode="10" channelCode="EHZ">smi:scs/0.6/NA-idp434704</waveformID>
      <creationInfo>
        <agencyID>WEL(GNS_Primary)</agencyID>
        <author>scmag@scz-ak.geonet.org.nz</author>
        <creationTime>2013-04-29T22:54:51.24133Z</creationTime>
      </creationInfo>
    </stationMagnitude>
    <stationMagnitude publicID="smi:scs/0.6/NLL.20130429225437.756854.3816785#staMag.MLv#NZ.BHHZ">
      <comment/>
      <originID>smi:scs/0.6/NLL.20130429225437.756854.3816785</originID>
      <mag>
        <value>2.3776839</value>
      </mag>
      <type>MLv</type>
      <amplitudeID>smi:scs/0.6/Amplitude#20130429225507.288487.498744</amplitudeID>
      <waveformID networkCode="NZ" stationCode="BHHZ" locationCode="10" channelCode="EHZ">smi:scs/0.6/NA-idp439920</waveformID>
      <creationInfo>
        <agencyID>WEL(GNS_Primary)</agencyID>
        <author>scmag@scz-ak.geonet.org.nz</author>
        <creationTime>2013-04-29T22:55:07.293106Z</creationTime>
      </creationInfo>
    </stationMagnitude>
    <stationMagnitude publicID="smi:scs/0.6/NLL.20130429225437.756854.3816785#staMag.MLv#NZ.BFZ">
      <comment/>
      <originID>smi:scs/0.6/NLL.20130429225437.756854.3816785</originID>
      <mag>
        <value>2.2408328</value>
      </mag>
      <type>MLv</type>
      <amplitudeID>smi:scs/0.6/Amplitude#20130429225507.298074.498746</amplitudeID>
      <waveformID networkCode="NZ" stationCode="BFZ" locationCode="10" channelCode="HHZ">smi:scs/0.6/NA-idp445136</waveformID>
      <creationInfo>
        <agencyID>WEL(GNS_Primary)</agencyID>
        <author>scmag@scz-ak.geonet.org.nz</author>
        <creationTime>2013-04-29T22:55:07.30557Z</creationTime>
      </creationInfo>
    </stationMagnitude>
    <stationMagnitude publicID="smi:scs/0.6/NLL.20130429225437.756854.3816785#staMag.ML#NZ.BFZ">
      <comment/>
      <originID>smi:scs/0.6/NLL.20130429225437.756854.3816785</originID>
      <mag>
        <value>2.2797214</value>
      </mag>
      <type>ML</type>
      <amplitudeID>smi:scs/0.6/Amplitude#20130429225507.309502.498748</amplitudeID>
      <waveformID networkCode="NZ" stationCode="BFZ" locationCode="10" channelCode="HH">smi:scs/0.6/NA-idp450320</waveformID>
      <creationInfo>
        <agencyID>WEL(GNS_Primary)</agencyID>
        <author>scmag@scz-ak.geonet.org.nz</author>
        <creationTime>2013-04-29T22:55:07.314856Z</creationTime>
      </creationInfo>
    </stationMagnitude>
    <stationMagnitude publicID="smi:scs/0.6/NLL.20130429225437.756854.3816785#staMag.ML#NZ.BHHZ">
      <comment/>
      <originID>smi:scs/0.6/NLL.20130429225437.756854.3816785</originID>
      <mag>
        <value>2.5618673</value>
      </mag>
      <type>ML</type>
      <amplitudeID>smi:scs/0.6/Amplitude#20130429225507.317072.498750</amplitudeID>
      <waveformID networkCode="NZ" stationCode="BHHZ" locationCode="10" channelCode="EH">smi:scs/0.6/NA-idp455504</waveformID>
      <creationInfo>
        <agencyID>WEL(GNS_Primary)</agencyID>
        <author>scmag@scz-ak.geonet.org.nz</author>
        <creationTime>2013-04-29T22:55:07.323008Z</creationTime>
      </creationInfo>
    </stationMagnitude>
    <magnitude publicID="smi:scs/0.6/NLL.20130429225437.756854.3816785#netMag.ML">
      <comment/>
      <originID>smi:scs/0.6/NLL.20130429225437.756854.3816785</originID>
      <mag>
        <value>2.512669</value>
        <uncertainty>0.16421272</uncertainty>
      </mag>
      <type>ML</type>
      <methodID>smi:scs/0.6/trimmedmean(25)</methodID>
      <stationCount>8</stationCount>
      <creationInfo>
        <agencyID>WEL(GNS_Primary)</agencyID>
        <author>scmag@scz-ak.geonet.org.nz</author>
        <creationTime>2013-04-29T22:54:41.918731Z</creationTime>
      </creationInfo>
      <stationMagnitudeContribution>
        <stationMagnitudeID>smi:scs/0.6/NLL.20130429225437.756854.3816785#staMag.ML#NZ.ANWZ</stationMagnitudeID>
        <weight>0</weight>
      </stationMagnitudeContribution>
      <stationMagnitudeContribution>
        <stationMagnitudeID>smi:scs/0.6/NLL.20130429225437.756854.3816785#staMag.ML#NZ.DVHZ</stationMagnitudeID>
        <weight>1</weight>
      </stationMagnitudeContribution>
      <stationMagnitudeContribution>
        <stationMagnitudeID>smi:scs/0.6/NLL.20130429225437.756854.3816785#staMag.ML#NZ.PRHZ</stationMagnitudeID>
        <weight>1</weight>
      </stationMagnitudeContribution>
      <stationMagnitudeContribution>
        <stationMagnitudeID>smi:scs/0.6/NLL.20130429225437.756854.3816785#staMag.ML#NZ.PXZ</stationMagnitudeID>
        <weight>1</weight>
      </stationMagnitudeContribution>
      <stationMagnitudeContribution>
        <stationMagnitudeID>smi:scs/0.6/NLL.20130429225437.756854.3816785#staMag.ML#NZ.WPHZ</stationMagnitudeID>
        <weight>0</weight>
      </stationMagnitudeContribution>
      <stationMagnitudeContribution>
        <stationMagnitudeID>smi:scs/0.6/NLL.20130429225437.756854.3816785#staMag.ML#NZ.KAHZ</stationMagnitudeID>
        <weight>1</weight>
      </stationMagnitudeContribution>
      <stationMagnitudeContribution>
        <stationMagnitudeID>smi:scs/0.6/NLL.20130429225437.756854.3816785#staMag.ML#NZ.TSZ</stationMagnitudeID>
        <weight>0.75</weight>
      </stationMagnitudeContribution>
      <stationMagnitudeContribution>
        <stationMagnitudeID>smi:scs/0.6/NLL.20130429225437.756854.3816785#staMag.ML#NZ.PRWZ</stationMagnitudeID>
        <weight>0.75</weight>
      </stationMagnitudeContribution>
      <stationMagnitudeContribution>
        <stationMagnitudeID>smi:scs/0.6/NLL.20130429225437.756854.3816785#staMag.ML#NZ.BFZ</stationMagnitudeID>
        <weight>1</weight>
      </stationMagnitudeContribution>
      <stationMagnitudeContribution>
        <stationMagnitudeID>smi:scs/0.6/NLL.20130429225437.756854.3816785#staMag.ML#NZ.BHHZ</stationMagnitudeID>
        <weight>1</weight>
      </stationMagnitudeContribution>
    </magnitude>
    <magnitude publicID="smi:scs/0.6/NLL.20130429225437.756854.3816785#netMag.MLv">
      <comment/>
      <originID>smi:scs/0.6/NLL.20130429225437.756854.3816785</originID>
      <mag>
        <value>2.1897815</value>
        <uncertainty>0.19193867</uncertainty>
      </mag>
      <type>MLv</type>
      <methodID>smi:scs/0.6/trimmedmean(25)</methodID>
      <stationCount>8</stationCount>
      <creationInfo>
        <agencyID>WEL(GNS_Primary)</agencyID>
        <author>scmag@scz-ak.geonet.org.nz</author>
        <creationTime>2013-04-29T22:54:41.918821Z</creationTime>
      </creationInfo>
      <stationMagnitudeContribution>
        <stationMagnitudeID>smi:scs/0.6/NLL.20130429225437.756854.3816785#staMag.MLv#NZ.ANWZ</stationMagnitudeID>
        <weight>0</weight>
      </stationMagnitudeContribution>
      <stationMagnitudeContribution>
        <stationMagnitudeID>smi:scs/0.6/NLL.20130429225437.756854.3816785#staMag.MLv#NZ.DVHZ</stationMagnitudeID>
        <weight>1</weight>
      </stationMagnitudeContribution>
      <stationMagnitudeContribution>
        <stationMagnitudeID>smi:scs/0.6/NLL.20130429225437.756854.3816785#staMag.MLv#NZ.KAHZ</stationMagnitudeID>
        <weight>1</weight>
      </stationMagnitudeContribution>
      <stationMagnitudeContribution>
        <stationMagnitudeID>smi:scs/0.6/NLL.20130429225437.756854.3816785#staMag.MLv#NZ.PRHZ</stationMagnitudeID>
        <weight>0</weight>
      </stationMagnitudeContribution>
      <stationMagnitudeContribution>
        <stationMagnitudeID>smi:scs/0.6/NLL.20130429225437.756854.3816785#staMag.MLv#NZ.PXZ</stationMagnitudeID>
        <weight>1</weight>
      </stationMagnitudeContribution>
      <stationMagnitudeContribution>
        <stationMagnitudeID>smi:scs/0.6/NLL.20130429225437.756854.3816785#staMag.MLv#NZ.TSZ</stationMagnitudeID>
        <weight>0.75</weight>
      </stationMagnitudeContribution>
      <stationMagnitudeContribution>
        <stationMagnitudeID>smi:scs/0.6/NLL.20130429225437.756854.3816785#staMag.MLv#NZ.WPHZ</stationMagnitudeID>
        <weight>0.75</weight>
      </stationMagnitudeContribution>
      <stationMagnitudeContribution>
        <stationMagnitudeID>smi:scs/0.6/NLL.20130429225437.756854.3816785#staMag.MLv#NZ.PRWZ</stationMagnitudeID>
        <weight>1</weight>
      </stationMagnitudeContribution>
      <stationMagnitudeContribution>
        <stationMagnitudeID>smi:scs/0.6/NLL.20130429225437.756854.3816785#staMag.MLv#NZ.BHHZ</stationMagnitudeID>
        <weight>1</weight>
      </stationMagnitudeContribution>
      <stationMagnitudeContribution>
        <stationMagnitudeID>smi:scs/0.6/NLL.20130429225437.756854.3816785#staMag.MLv#NZ.BFZ</stationMagnitudeID>
        <weight>1</weight>
      </stationMagnitudeContribution>
    </magnitude>
